stk.v.4.3 

BEGIN Ephemeris 
 
NumberOfEphemerisPoints		146 
ScenarioEpoch	    3 Sep 2020 17:43:19.543306232 
InterpolationMethod		Lagrange 
InterpolationOrder		5 
CentralBody				Earth 
CoordinateSystem			TEME 
CoordinateSystemEpoch	  3 Sep 2020 17:43:19.543306232 
DistanceUnit			Kilometers 
 
EphemerisTimePosVel 
 
       0.00000000   -4096.77642980    5870.62125605       0.04211057 -0.378888510 -0.276077589  7.448845372
 END Ephemeris 
